#aV2011  1 21  0  0   .00000000      96 DD+AD WGS84 FIT  NGA
## 1619 432000.00000000   900.00000000 55582  .0000000000000
+   32     1  2  3  4  5  6  7  8  9 10 11 12 13 14 15 16 17
+         18 19 20 21 22 23 24 25 26 27 28 29 30 31 32  0  0
+          0  0  0  0  0  0  0  0  0  0  0  0  0  0  0  0  0
+          0  0  0  0  0  0  0  0  0  0  0  0  0  0  0  0  0
+          0  0  0  0  0  0  0  0  0  0  0  0  0  0  0  0  0
++         0  0  0  0  0  0  0  0  0  0  0  0  0  0  0  0  0
++         0  0  0  0  0  0  0  0  0  0  0  0  0  0  0  0  0
++         0  0  0  0  0  0  0  0  0  0  0  0  0  0  0  0  0
++         0  0  0  0  0  0  0  0  0  0  0  0  0  0  0  0  0
++         0  0  0  0  0  0  0  0  0  0  0  0  0  0  0  0  0
%c cc cc ccc ccc cccc cccc cccc cccc ccccc ccccc ccccc ccccc
%c cc cc ccc ccc cccc cccc cccc cccc ccccc ccccc ccccc ccccc
%f  0.0000000  0.000000000  0.00000000000  0.000000000000000
%f  0.0000000  0.000000000  0.00000000000  0.000000000000000
%i    0    0    0    0      0      0      0      0         0
%i    0    0    0    0      0      0      0      0         0
/*      NGA, ST. LOUIS,MO.                                  
/*   EPHEMERIS COMPUTED FROM  3 DAYS OF DATA                
/* CCCCCCCCCCCCCCCCCCCCCCCCCCCCCCCCCCCCCCCCCCCCCCCCCCCCCCCCC
/* CCCCCCCCCCCCCCCCCCCCCCCCCCCCCCCCCCCCCCCCCCCCCCCCCCCCCCCCC
*  2011  1 21 20 45   .00000000                                                 
P  1 -24563.702887  -6548.828004  -8034.646148   -202.013714                    
V  1  10093.619559  -1885.377158 -29603.223891      -.031519                    
P  2  18511.357098  -4620.538488 -18266.541304    316.003252                    
V  2 -10474.708360  21104.167820 -16417.052976       .021697                    
P  3 -18053.732935   -900.606991  19154.083601    665.606880                    
V  3 -13116.254876 -21584.535252 -12780.990211       .051207                    
P  4  14442.672249   6666.233280 -21492.272920     14.748795                    
V  4 -14354.477741  22728.074695  -2267.077742       .100005                    
P  5  26074.969347  -2330.353300   4783.265389   -102.472464                    
V  5   5964.888520   3081.033709 -30789.321577      -.059435                    
P  6 -18844.070255  -5727.984910  18068.616712    -25.915838                    
V  6  -9962.380258 -20401.436306 -16812.468219      -.282394                    
P  7  -2411.189008  21997.105766  14544.896080      2.200415                    
V  7 -11664.483444  14506.460811 -24076.283404       .006582                    
P  8   6219.759673  14608.423279  21192.588628      7.232660                    
V  8 -16810.689492  21027.926693 -10096.891264       .001925                    
P  9  14936.378607 -21768.784372   2295.962909     56.797663                    
V  9      9.605685   4183.554881  32064.236173       .024164                    
P 10  23598.006354   8394.280680  -9583.077422    -63.920405                    
V 10 -11913.980693   1724.583340 -28076.154626      -.011621                    
P 11 -10966.984651  23646.170310   3694.263180   -121.106731                    
V 11  -3450.590168  -6583.755380  29775.928014      -.029271                    
P 12  16479.175337 -11018.106300 -17560.022132    -33.770534                    
V 12  22275.990946   2819.975848  19250.659349       .033250                    
P 13   4171.875712  24675.327327  -8964.709466    285.129125                    
V 13  -5950.001384  -9602.665472 -29697.263357      -.012469                    
P 14 -14976.653457 -20577.681068  -7672.524003    125.537679                    
V 14  -2405.361470  -9782.520968  30181.482483       .029140                    
P 15   8560.659500 -14665.195623  20400.226561   -158.973085                    
V 15  13388.475321  22246.013576  10535.688231       .037593                    
P 16 -26663.914565  -1021.599929   1431.339529   -144.515108                    
V 16  -1596.516118  -2249.205533 -31802.701248      -.029979                    
P 17  14974.294131  21230.456049  -5952.766667    182.028903                    
V 17   1082.360608   8000.335617  30415.181925       .004926                    
P 18  -8055.720383 -15562.925148  20348.798258    117.214530                    
V 18  25199.493442    565.663249  10192.103280       .021005                    
P 19 -12210.445950   9763.978210  21435.806639   -103.698494                    
V 19 -11169.634921 -24878.766531   5298.070943      -.035534                    
P 20 -11295.095661  14295.978686 -19451.258080     48.749935                    
V 20 -24490.852265  -1716.730792  13125.533713      -.000495                    
P 21    484.872060 -21651.548716  15327.344653   -118.333539                    
V 21  12871.981982 -14463.067206 -21986.049424      -.027019                    
P 22 -19232.102107 -11843.977453  14215.292459    154.644343                    
V 22  17948.704525  -1502.710357  23207.628277      -.005996                    
P 23  -4089.653102  19118.766861 -17820.965695    330.809382                    
V 23 -11846.045020 -19486.182280 -18515.631668      -.022785                    
P 24 -15361.663457  21489.054279     57.195860    358.522121                    
V 24  -2810.638142  -2005.314841  31644.787502       .033049                    
P 25    477.638747 -15178.700649 -21804.157745    -64.755709                    
V 25  27636.739754    796.902949     53.318820      -.018639                    
P 26  15314.212298    289.897142  21189.695887   -101.791052                    
V 26  10845.254724  25950.063933  -7576.318965      -.092495                    
P 27  17578.058596 -17428.594887   9916.341110    229.221862                    
V 27  -4016.184402  11155.903085  28958.482406       .036018                    
P 28  16066.680594  13111.967841  17259.913044     15.776189                    
V 28 -20832.770171   -487.157725  20101.199245       .020708                    
P 29  -3013.844579 -24005.314675 -10922.241437    179.673833                    
V 29   8194.581580  11573.548899 -27461.108112       .027492                    
P 30 -25675.920403  -4128.250348  -5890.366080    315.449444                    
V 30   6955.045257  -2686.229603 -30518.879060       .031163                    
P 31 -14686.958458  -4005.327021 -21571.712447     32.363757                    
V 31  14824.051920 -23549.962322  -5469.591054       .043970                    
P 32 -19718.034605   8256.494435 -15206.771886   -179.982385                    
V 32 -19533.028605  -5007.810858  22567.790744      -.079907                    
EOF
